ONEWEB-0415             
1 51624U 22012C   24197.89511235 -.00000668  00000+0 -19496-2 0  9994
2 51624  87.8949 175.7439 0001691  87.7253 272.4068 13.10373632117445
ONEWEB-0416             
1 51625U 22012D   24197.90672752 -.00000480  00000+0 -14103-2 0  9991
2 51625  87.8957 175.7380 0002073  86.1307 274.0058 13.10375736117486
ONEWEB-0422             
1 51626U 22012E   24197.88040179  .00000027  00000+0  35191-4 0  9998
2 51626  87.9186 145.4847 0002431  63.0961 297.0419 13.17650351121456
ONEWEB-0423             
1 51627U 22012F   24197.87393607  .00000005  00000+0 -19726-4 0  9998
2 51627  87.9187 145.4873 0002216  79.6747 280.4635 13.17652251121348
ONEWEB-0425             
1 51628U 22012G   24197.91671653  .00000307  00000+0  84302-3 0  9999
2 51628  87.8953 175.7186 0002398  90.2523 269.8879 13.10375820117482
ONEWEB-0428             
1 51629U 22012H   24197.89677421 -.00000567  00000+0 -16605-2 0  9996
2 51629  87.8953 175.7384 0001872  77.0642 283.0694 13.10374732117444
ONEWEB-0431             
1 51630U 22012J   24197.94313044  .00000304  00000+0  83392-3 0  9997
2 51630  87.8941 175.7246 0001480  70.2413 289.8874 13.10371268117508
ONEWEB-0434             
1 51631U 22012K   24197.92003719  .00000496  00000+0  13841-2 0  9994
2 51631  87.8955 175.7454 0002147  80.8031 279.3339 13.10375890117481
